{"type":"FeatureCollection","features":[{"type":"Feature","geometry":{"type":"Point","coordinates":[130.444176,33.583849]},"properties":{"id":"fuk_airport","name":"福岡機場","kind":"airport","days":[1,5],"gmaps_url":"https://www.google.com/maps/search/?api=1&query=33.583849,130.444176&query_place_id=ChIJ_en9djmQQTURvrjzkJZTPvI"}},{"type":"Feature","geometry":{"type":"Point","coordinates":[130.420727,33.589727]},"properties":{"id":"hakata_st","name":"博多車站","kind":"station","days":[1,4],"gmaps_url":"https://www.google.com/maps/search/?api=1&query=33.589727,130.420727&query_place_id=ChIJdbP55seRQTURkIu5RT0r4i4"}},{"type":"Feature","geometry":{"type":"Point","coordinates":[130.399967,33.588689]},"properties":{"id":"tenjin","name":"天神","kind":"station","days":[1,4],"gmaps_url":"https://www.google.com/maps/search/?api=1&query=33.588689,130.399967&query_place_id=ChIJE6vr6o-RQTURSk3GcHV8j8M"}},{"type":"Feature","geometry":{"type":"Point","coordinates":[130.406065,33.594411]},"properties":{"id":"nakasu","name":"中洲（屋台）","kind":"sight","days":[1,4],"gmaps_url":"https://www.google.com/maps/search/?api=1&query=33.594411,130.406065&query_place_id=ChIJiShWTeuRQTURuHO1zkcLEtI"}},{"type":"Feature","geometry":{"type":"Point","coordinates":[130.705833,32.806186]},"properties":{"id":"kumamoto_castle","name":"熊本城","kind":"sight","days":[2],"gmaps_url":"https://www.google.com/maps/search/?api=1&query=32.806186,130.705833&query_place_id=ChIJWco6Ag70QDURMOTNdshmi14"}},{"type":"Feature","geometry":{"type":"Point","coordinates":[130.703756,32.803671]},"properties":{"id":"sakuranobaba","name":"櫻之馬場 城彩苑","kind":"sight","days":[2],"gmaps_url":"https://www.google.com/maps/search/?api=1&query=32.803671,130.703756&query_place_id=ChIJVVWF5hL0QDURK6OuEjMkKjw"}},{"type":"Feature","geometry":{"type":"Point","coordinates":[130.689915,32.790193]},"properties":{"id":"kumamoto_st","name":"熊本車站","kind":"station","days":[2],"gmaps_url":"https://www.google.com/maps/search/?api=1&query=32.790193,130.689915&query_place_id=ChIJf2Sbz1j0QDUREo0XscKeT7U"}},{"type":"Feature","geometry":{"type":"Point","coordinates":[131.053328,32.881825]},"properties":{"id":"kusasenri","name":"阿蘇草千里","kind":"sight","days":[3],"gmaps_url":"https://www.google.com/maps/search/?api=1&query=32.881825,131.053328&query_place_id=ChIJXathGaooQTURTo7Evdbc8_g"}},{"type":"Feature","geometry":{"type":"Point","coordinates":[131.363057,33.266739]},"properties":{"id":"yunotsubo","name":"湯之坪街道","kind":"sight","days":[3],"gmaps_url":"https://www.google.com/maps/search/?api=1&query=33.266739,131.363057&query_place_id=ChIJSTy-RNatRjURgl1CI-VDlVU"}},{"type":"Feature","geometry":{"type":"Point","coordinates":[131.365536,33.267487]},"properties":{"id":"floral_village","name":"湯布院童話村","kind":"sight","days":[3],"gmaps_url":"https://www.google.com/maps/search/?api=1&query=33.267487,131.365536&query_place_id=ChIJWax-bn6uRjUReLLmqHrObCU"}},{"type":"Feature","geometry":{"type":"Point","coordinates":[131.369027,33.266664]},"properties":{"id":"kinrinko","name":"金鱗湖","kind":"sight","days":[3],"gmaps_url":"https://www.google.com/maps/search/?api=1&query=33.266664,131.369027&query_place_id=ChIJa7QFnn2uRjUR5ofN82Ctd44"}},{"type":"Feature","geometry":{"type":"Point","coordinates":[131.500257,33.279701]},"properties":{"id":"beppu_st","name":"別府車站","kind":"station","days":[3],"gmaps_url":"https://www.google.com/maps/search/?api=1&query=33.279701,131.500257&query_place_id=ChIJk04o4OemRjURApdni5A1bL0"}},{"type":"Feature","geometry":{"type":"Point","coordinates":[130.534824,33.52137]},"properties":{"id":"dazaifu","name":"太宰府天滿宮","kind":"sight","days":[4],"gmaps_url":"https://www.google.com/maps/search/?api=1&query=33.521370,130.534824&query_place_id=ChIJzfvrKp-bQTURl65fp6vRJLg"}},{"type":"Feature","geometry":{"type":"Point","coordinates":[130.440941,33.565168]},"properties":{"id":"lalaport","name":"LaLaport 福岡・1:1 鋼彈","kind":"mall","days":[4],"gmaps_url":"https://www.google.com/maps/search/?api=1&query=33.565168,130.440941&query_place_id=ChIJEdlnmueRQTURANHkHiY3d-U"}},{"type":"Feature","geometry":{"type":"Point","coordinates":[130.961552,33.945112]},"properties":{"id":"mojiko_st","name":"門司港車站","kind":"sight","days":[5],"gmaps_url":"https://www.google.com/maps/search/?api=1&query=33.945112,130.961552&query_place_id=ChIJm7Lk-SiWQzURomPcFPli5vg"}},{"type":"Feature","geometry":{"type":"Point","coordinates":[130.963613,33.947734]},"properties":{"id":"old_moji_customs","name":"舊門司稅關","kind":"sight","days":[5],"gmaps_url":"https://www.google.com/maps/search/?api=1&query=33.947734,130.963613&query_place_id=ChIJUSnM-SuWQzURRlwoC8LnqcQ"}},{"type":"Feature","geometry":{"type":"Point","coordinates":[130.962505,33.945699]},"properties":{"id":"old_mitsui_club","name":"舊門司三井俱樂部","kind":"sight","days":[5],"gmaps_url":"https://www.google.com/maps/search/?api=1&query=33.945699,130.962505&query_place_id=ChIJ7d3bFimWQzURJmSw4ZyZ1nQ"}},{"type":"Feature","geometry":{"type":"Point","coordinates":[130.963537,33.945741]},"properties":{"id":"kaikyo_plaza","name":"海峽廣場","kind":"sight","days":[5],"gmaps_url":"https://www.google.com/maps/search/?api=1&query=33.945741,130.963537&query_place_id=ChIJNRsiNSmWQzURHzE7Jh6TklM"}},{"type":"Feature","geometry":{"type":"Point","coordinates":[130.81165,33.873417]},"properties":{"id":"outlets_kitakyushu","name":"THE OUTLETS 北九州","kind":"mall","days":[5],"gmaps_url":"https://www.google.com/maps/search/?api=1&query=33.873417,130.811650&query_place_id=ChIJbfgCbdTHQzURL9EV_FiuESs"}},{"type":"Feature","geometry":{"type":"Point","coordinates":[130.810827,33.870513]},"properties":{"id":"aeon_yahatahigashi","name":"AEON MALL 八幡東","kind":"mall","days":[5],"gmaps_url":"https://www.google.com/maps/search/?api=1&query=33.870513,130.810827&query_place_id=ChIJKVHPxM7HQzURXBRlvPhwx4k"}},{"type":"Feature","geometry":{"type":"Point","coordinates":[130.404153,33.584829]},"properties":{"id":"base1","name":"Day1 據點","kind":"base","days":[1]}},{"type":"Feature","geometry":{"type":"Point","coordinates":[130.709882,32.807341]},"properties":{"id":"base2","name":"Day2 據點","kind":"base","days":[2]}},{"type":"Feature","geometry":{"type":"Point","coordinates":[131.47839,33.314761]},"properties":{"id":"base3","name":"Day3 據點","kind":"base","days":[3]}},{"type":"Feature","geometry":{"type":"Point","coordinates":[130.404153,33.584829]},"properties":{"id":"base4","name":"Day4 據點","kind":"base","days":[4]}}]}