{"type":"FeatureCollection","features":[{"type":"Feature","geometry":{"coordinates":[[130.44415,33.58384],[130.4453,33.5823],[130.44534,33.58203],[130.44511,33.58169],[130.44469,33.58156],[130.4437,33.58177],[130.44295,33.58139],[130.43848,33.5785],[130.4376,33.57716],[130.43595,33.57584],[130.43413,33.5754],[130.43175,33.57426],[130.42871,33.57232],[130.42673,33.57262],[130.42613,33.57329],[130.42481,33.57421],[130.42403,33.57453],[130.42182,33.57494],[130.42142,33.57514],[130.42008,33.57608],[130.41825,33.57802],[130.41523,33.57655],[130.41183,33.57581],[130.404,33.58474],[130.40415,33.58483]],"type":"LineString"},"properties":{"day":1,"seq":1,"from":"福岡機場","to":"Day1 據點","distance_km":5.3,"duration_min":7}},{"type":"Feature","geometry":{"coordinates":[[130.40415,33.58483],[130.44421,33.54697],[130.46731,33.56334],[130.49806,33.52992],[130.49863,33.50987],[130.53144,33.45946],[130.53794,33.34722],[130.55981,33.31211],[130.50863,33.1471],[130.58403,33.0041],[130.61809,32.97385],[130.67301,32.95116],[130.69951,32.92774],[130.69094,32.88819],[130.72266,32.82889],[130.70624,32.80714]],"type":"LineString"},"properties":{"day":2,"seq":1,"from":"Day1 據點","to":"熊本城","distance_km":107.4,"duration_min":91}},{"type":"Feature","geometry":{"coordinates":[[130.70624,32.80714],[130.70674,32.80704],[130.70756,32.80678],[130.70771,32.80673],[130.70784,32.80661],[130.70812,32.80617],[130.70813,32.80466],[130.7083,32.80434],[130.70836,32.80413],[130.70822,32.80408],[130.70706,32.80287],[130.70577,32.80138],[130.70461,32.80155],[130.70479,32.80246],[130.7047,32.80253],[130.70443,32.80307],[130.70389,32.80292],[130.70369,32.80321],[130.70387,32.80331]],"type":"LineString"},"properties":{"day":2,"seq":2,"from":"熊本城","to":"櫻之馬場","distance_km":1.2,"duration_min":2}},{"type":"Feature","geometry":{"coordinates":[[130.70387,32.80331],[130.70369,32.80321],[130.70389,32.80292],[130.70443,32.80307],[130.7047,32.80253],[130.70588,32.80175],[130.70705,32.80308],[130.70752,32.80354],[130.7082,32.80429],[130.7083,32.80434],[130.70901,32.80508],[130.71003,32.80621],[130.71017,32.80649],[130.71019,32.80667],[130.71014,32.80688],[130.70988,32.80734]],"type":"LineString"},"properties":{"day":2,"seq":3,"from":"櫻之馬場","to":"Day2 據點","distance_km":1.1,"duration_min":2}},{"type":"Feature","geometry":{"coordinates":[[130.70988,32.80734],[130.7101,32.80915],[130.71478,32.80863],[130.71592,32.81271],[130.72052,32.81253],[130.72415,32.81393],[130.73974,32.81556],[130.74741,32.82147],[130.75136,32.82705],[130.75602,32.83089],[130.76466,32.84337],[130.7751,32.84863],[130.78559,32.84948],[130.79193,32.8548],[130.79899,32.85696],[130.835,32.85912],[130.8407,32.8572],[130.86106,32.85783],[130.86863,32.85955],[130.8775,32.86438],[130.89182,32.86509],[130.92286,32.86901],[130.93657,32.87232],[130.94346,32.87539],[130.95493,32.87663],[130.96252,32.87924],[130.97183,32.87763],[130.98306,32.87991],[130.9916,32.87488],[130.99488,32.87095],[130.99708,32.87165],[130.99962,32.87084],[131.00406,32.87201],[131.0048,32.87556],[131.00834,32.87761],[131.01057,32.88355],[131.01464,32.88378],[131.02266,32.88813],[131.0234,32.89065],[131.02753,32.89139],[131.02717,32.89521],[131.02988,32.90024],[131.03043,32.90479],[131.03393,32.90263],[131.03639,32.90488],[131.041,32.90214],[131.04513,32.90226],[131.04534,32.90041],[131.0467,32.9002],[131.04531,32.89788],[131.0463,32.89875],[131.05049,32.89662],[131.04678,32.89286],[131.04861,32.89316],[131.04831,32.89106],[131.051,32.89218],[131.05024,32.8908],[131.05564,32.88711],[131.05205,32.88654],[131.04944,32.88391],[131.05208,32.88491]],"type":"LineString"},"properties":{"day":3,"seq":1,"from":"Day2 據點","to":"草千里","distance_km":43.2,"duration_min":48}},{"type":"Feature","geometry":{"coordinates":[[131.05208,32.88491],[131.05516,32.88818],[131.04673,32.89302],[131.05218,32.9025],[131.06607,32.91271],[131.08267,32.91416],[131.0622,32.92407],[131.07916,32.92801],[131.0838,32.93734],[131.06856,32.95647],[131.04771,32.97048],[131.06006,32.97745],[131.06699,32.9897],[131.06332,32.99652],[131.06901,33.01543],[131.06321,33.02877],[131.0691,33.04165],[131.06104,33.07919],[131.06777,33.08858],[131.06365,33.11008],[131.06811,33.11954],[131.0807,33.12244],[131.09091,33.13935],[131.10635,33.14271],[131.11726,33.17846],[131.1266,33.1823],[131.14224,33.1805],[131.15046,33.19116],[131.16428,33.19627],[131.17541,33.22599],[131.19011,33.23007],[131.21053,33.22502],[131.22645,33.24179],[131.24357,33.24162],[131.26608,33.25384],[131.29512,33.24968],[131.3111,33.25889],[131.36306,33.26674]],"type":"LineString"},"properties":{"day":3,"seq":2,"from":"草千里","to":"湯布院","distance_km":79.2,"duration_min":82}},{"type":"Feature","geometry":{"coordinates":[[131.36306,33.26674],[131.36347,33.26984],[131.36284,33.27102],[131.36583,33.27687],[131.36718,33.27738],[131.36784,33.27863],[131.37085,33.27869],[131.37013,33.28046],[131.37047,33.28164],[131.36938,33.28206],[131.37037,33.28261],[131.36954,33.28323],[131.37185,33.28652],[131.37251,33.28576],[131.37301,33.28605],[131.37264,33.28772],[131.37128,33.28874],[131.37139,33.29033],[131.37074,33.29116],[131.37124,33.29346],[131.37553,33.29517],[131.37659,33.29664],[131.37644,33.29773],[131.37754,33.298],[131.38241,33.30206],[131.384,33.30261],[131.38764,33.30156],[131.39013,33.30181],[131.39196,33.30248],[131.3929,33.30388],[131.3953,33.30465],[131.39933,33.30506],[131.40111,33.30438],[131.40382,33.30632],[131.40453,33.30596],[131.4076,33.30996],[131.40809,33.31189],[131.41138,33.31439],[131.41438,33.31555],[131.41434,33.32182],[131.41562,33.32349],[131.41746,33.32381],[131.4175,33.32666],[131.42476,33.3345],[131.42648,33.33769],[131.42721,33.34206],[131.42852,33.34349],[131.42818,33.34427],[131.42906,33.34604],[131.43416,33.349],[131.43743,33.35004],[131.43941,33.34933],[131.44115,33.34969],[131.44348,33.35149],[131.45014,33.35121],[131.45149,33.35046],[131.4518,33.34816],[131.45577,33.3472],[131.45713,33.34437],[131.45571,33.34226],[131.45813,33.34118],[131.45888,33.34005],[131.46032,33.33628],[131.46013,33.33305],[131.45774,33.33056],[131.45504,33.33019],[131.45062,33.32854],[131.4498,33.3257],[131.45088,33.32449],[131.45249,33.32518],[131.45387,33.32504],[131.45415,33.32326],[131.45773,33.32025],[131.45874,33.31854],[131.45706,33.31806],[131.45403,33.31921],[131.45271,33.31864],[131.45232,33.31777],[131.45312,33.31732],[131.4526,33.31667],[131.45418,33.31676],[131.45692,33.31427],[131.45818,33.31465],[131.45913,33.31414],[131.46198,33.30978],[131.46415,33.31003],[131.47107,33.31508],[131.4764,33.3137],[131.47657,33.31439],[131.47839,33.31476]],"type":"LineString"},"properties":{"day":3,"seq":3,"from":"湯布院","to":"Day3 據點","distance_km":25.4,"duration_min":28}},{"type":"Feature","geometry":{"coordinates":[[131.47839,33.31476],[131.46173,33.30988],[131.44982,33.32557],[131.46013,33.33305],[131.4557,33.34731],[131.45014,33.35121],[131.43499,33.34931],[131.40453,33.30596],[131.35548,33.29272],[131.32955,33.25696],[131.32401,33.26185],[131.29506,33.24967],[131.26608,33.25384],[131.24357,33.24162],[131.22663,33.24187],[131.21173,33.22554],[131.20099,33.22446],[131.17238,33.24001],[131.16538,33.26812],[131.14628,33.27813],[131.09131,33.28187],[131.08513,33.28845],[131.08084,33.28496],[131.06705,33.2886],[131.06441,33.29502],[131.04275,33.29735],[131.0329,33.30424],[130.9917,33.31009],[130.98153,33.32135],[130.96711,33.32301],[130.94,33.34189],[130.86294,33.3267],[130.83618,33.34782],[130.82464,33.3665],[130.80525,33.36964],[130.77358,33.36402],[130.74504,33.38141],[130.72295,33.38109],[130.72741,33.3915],[130.72098,33.40156],[130.67906,33.41903],[130.66927,33.43126],[130.64747,33.43987],[130.63307,33.43601],[130.61256,33.4502],[130.54529,33.48221],[130.55324,33.50372],[130.54476,33.52546],[130.53449,33.52191]],"type":"LineString"},"properties":{"day":4,"seq":1,"from":"Day3 據點","to":"太宰府","distance_km":127.3,"duration_min":110}},{"type":"Feature","geometry":{"coordinates":[[130.53449,33.52191],[130.53411,33.52255],[130.53395,33.52124],[130.53154,33.52117],[130.53069,33.51759],[130.52796,33.5138],[130.51699,33.51346],[130.51657,33.5111],[130.51136,33.511],[130.50815,33.51186],[130.49548,33.51994],[130.49499,33.52111],[130.49513,33.52691],[130.48644,33.53686],[130.48351,33.54532],[130.47833,33.5515],[130.47327,33.55563],[130.46678,33.56328],[130.46108,33.56602],[130.45572,33.57108],[130.45129,33.56976],[130.44589,33.56504],[130.44184,33.56351],[130.44134,33.56442]],"type":"LineString"},"properties":{"day":4,"seq":2,"from":"太宰府","to":"LaLaport","distance_km":13.7,"duration_min":18}},{"type":"Feature","geometry":{"coordinates":[[130.44134,33.56442],[130.43897,33.56352],[130.43475,33.56628],[130.43293,33.56771],[130.43102,33.5697],[130.43084,33.57054],[130.42919,33.57256],[130.42871,33.57232],[130.42673,33.57262],[130.42613,33.57329],[130.42481,33.57421],[130.42403,33.57453],[130.42182,33.57494],[130.42008,33.57608],[130.41825,33.57802],[130.41523,33.57655],[130.41183,33.57581],[130.404,33.58474],[130.40415,33.58483]],"type":"LineString"},"properties":{"day":4,"seq":3,"from":"LaLaport","to":"Day4 據點","distance_km":4.8,"duration_min":7}},{"type":"Feature","geometry":{"coordinates":[[130.40415,33.58483],[130.39228,33.60068],[130.40795,33.60862],[130.43201,33.65722],[130.4372,33.659],[130.44145,33.6671],[130.44827,33.66909],[130.45483,33.67543],[130.45187,33.69118],[130.45353,33.69412],[130.47124,33.7038],[130.48032,33.71718],[130.48444,33.7162],[130.48411,33.72045],[130.49346,33.71934],[130.50017,33.72312],[130.50642,33.73065],[130.51607,33.73529],[130.53031,33.74873],[130.53904,33.75071],[130.55729,33.74912],[130.56729,33.75186],[130.58619,33.75009],[130.59897,33.74604],[130.61114,33.74775],[130.62763,33.74424],[130.64901,33.75615],[130.66435,33.75869],[130.67747,33.77133],[130.71804,33.78312],[130.73829,33.78028],[130.74705,33.78125],[130.7768,33.79886],[130.82757,33.80892],[130.84147,33.80803],[130.86206,33.80112],[130.87471,33.80495],[130.88864,33.82247],[130.90481,33.8316],[130.92269,33.83644],[130.94251,33.86252],[130.95739,33.86814],[130.96886,33.87637],[130.97143,33.90404],[130.98203,33.92421],[130.97149,33.93058],[130.97058,33.94079],[130.96115,33.94543]],"type":"LineString"},"properties":{"day":5,"seq":1,"from":"Day4 據點","to":"門司港","distance_km":82.0,"duration_min":71}},{"type":"Feature","geometry":{"coordinates":[[130.96115,33.94543],[130.9575,33.9426],[130.94718,33.93767],[130.9429,33.93085],[130.94185,33.92562],[130.93971,33.92243],[130.93964,33.91929],[130.93806,33.91569],[130.93588,33.91282],[130.93463,33.91214],[130.93315,33.9089],[130.92216,33.89802],[130.91602,33.89396],[130.90431,33.8921],[130.89643,33.889],[130.89439,33.88725],[130.89145,33.88627],[130.89129,33.88352],[130.88788,33.87744],[130.88063,33.87263],[130.87455,33.87178],[130.85216,33.87293],[130.84811,33.87752],[130.84387,33.88012],[130.84106,33.88119],[130.83675,33.8814],[130.83341,33.88023],[130.8222,33.87056],[130.81954,33.87093],[130.81858,33.87194],[130.81467,33.87309],[130.8141,33.87431],[130.81234,33.8736]],"type":"LineString"},"properties":{"day":5,"seq":2,"from":"門司港","to":"THE OUTLETS","distance_km":19.3,"duration_min":26}},{"type":"Feature","geometry":{"coordinates":[[130.81234,33.8736],[130.81269,33.87267],[130.81371,33.87294],[130.81477,33.87311],[130.81521,33.87146],[130.81521,33.87106],[130.81515,33.87062],[130.81504,33.87064],[130.81444,33.87091],[130.81397,33.871],[130.81076,33.87122],[130.81073,33.87088],[130.81085,33.87087]],"type":"LineString"},"properties":{"day":5,"seq":3,"from":"THE OUTLETS","to":"AEON MALL","distance_km":1.1,"duration_min":3}},{"type":"Feature","geometry":{"coordinates":[[130.81085,33.87087],[130.75218,33.86391],[130.73095,33.86633],[130.71667,33.85696],[130.70153,33.85848],[130.69339,33.85232],[130.68028,33.84912],[130.6644,33.85204],[130.6364,33.84967],[130.62841,33.8531],[130.62239,33.85285],[130.61355,33.84626],[130.60603,33.83126],[130.60753,33.82324],[130.60091,33.81697],[130.5955,33.80255],[130.58745,33.7976],[130.57624,33.79628],[130.56291,33.78684],[130.53137,33.78187],[130.51649,33.76924],[130.5004,33.76011],[130.48636,33.74208],[130.47731,33.73598],[130.47594,33.72389],[130.46074,33.71742],[130.45064,33.6962],[130.45555,33.67692],[130.45012,33.66994],[130.45099,33.66015],[130.44101,33.64733],[130.43715,33.60068],[130.43421,33.59495],[130.439,33.58579],[130.44193,33.58691],[130.44415,33.58384]],"type":"LineString"},"properties":{"day":5,"seq":4,"from":"AEON MALL","to":"福岡機場","distance_km":58.6,"duration_min":49}}]}