{"type":"FeatureCollection","features":[{"type":"Feature","geometry":{"type":"MultiLineString","coordinates":[[[130.41887,33.59025],[130.41884,33.58983],[130.41884,33.58972],[130.41883,33.58961]],[[130.41864,33.58745],[130.41856,33.58741],[130.41843,33.58732],[130.41831,33.58725],[130.41762,33.58684],[130.41726,33.58662],[130.4171,33.58653],[130.41646,33.58616],[130.41637,33.5861],[130.41619,33.586],[130.4157,33.58571],[130.41554,33.58562]],[[130.41554,33.58562],[130.41536,33.58551],[130.41448,33.585],[130.41441,33.58496],[130.41354,33.58445],[130.41341,33.58437],[130.41279,33.58402],[130.41268,33.58395]],[[130.41268,33.58395],[130.41254,33.58388],[130.41239,33.58381],[130.41205,33.58372]],[[130.41205,33.58372],[130.41184,33.58366],[130.41127,33.58348],[130.41078,33.58334],[130.41071,33.58332],[130.4101,33.58313]],[[130.4101,33.58313],[130.40932,33.58289]],[[130.40932,33.58289],[130.40914,33.58283],[130.40895,33.58277],[130.40872,33.5827],[130.40844,33.58262]],[[130.40755,33.58239],[130.40746,33.58237],[130.40737,33.58237],[130.40716,33.58237]],[[130.40716,33.58237],[130.40704,33.58238],[130.40686,33.58238]],[[130.40616,33.58252],[130.40601,33.58251]],[[130.40601,33.58251],[130.40582,33.58269],[130.4058,33.58271],[130.40548,33.58307]]]},"properties":{"days":[1,4],"to":"博多車站","mode":"bus","ref":"305","name":"金武線　博多駅⇒渡辺通一丁目","operator":"西日本鉄道","headway_min":null}},{"type":"Feature","geometry":{"type":"MultiLineString","coordinates":[[[130.39889,33.59166],[130.39892,33.59159],[130.399,33.59139]],[[130.399,33.59139],[130.39908,33.59118],[130.39909,33.59117],[130.39927,33.59073],[130.39927,33.59072],[130.39945,33.59029],[130.39956,33.59],[130.39964,33.58987],[130.39978,33.58968],[130.39985,33.5896],[130.40023,33.58919],[130.40033,33.58909],[130.40042,33.58898],[130.4012,33.58812],[130.40131,33.58799]],[[130.40131,33.58799],[130.40142,33.58786],[130.40149,33.58778],[130.40165,33.5876],[130.40186,33.58737]],[[130.40246,33.58671],[130.40256,33.58658]],[[130.4032,33.58587],[130.40326,33.58581],[130.4039,33.58511],[130.40408,33.58491],[130.40415,33.58483],[130.40422,33.58475],[130.40454,33.5844],[130.40477,33.58413],[130.40481,33.58408],[130.40513,33.58373],[130.40526,33.58358]],[[130.40616,33.58252],[130.40649,33.58254]],[[130.40775,33.58254],[130.40797,33.5826]],[[130.40914,33.58296],[130.40928,33.58299]],[[130.40928,33.58299],[130.41006,33.58323]],[[130.41006,33.58323],[130.41068,33.58342],[130.41074,33.58344],[130.41118,33.58358],[130.41179,33.58376],[130.41197,33.58381]],[[130.41197,33.58381],[130.41222,33.5839],[130.41227,33.58391],[130.41246,33.58398],[130.4126,33.58404]],[[130.4126,33.58404],[130.41271,33.58411],[130.41333,33.58447],[130.4134,33.58451],[130.41433,33.58505],[130.4144,33.58509],[130.41527,33.58561],[130.41545,33.58571]],[[130.41545,33.58571],[130.41562,33.58581],[130.41611,33.5861],[130.41627,33.58619],[130.41638,33.58626],[130.41702,33.58663],[130.41717,33.58672],[130.41741,33.58685],[130.41754,33.58693]],[[130.41754,33.58693],[130.41826,33.58736]],[[130.41832,33.58739],[130.4184,33.58745],[130.41845,33.58749],[130.4185,33.58754]],[[130.4185,33.58754],[130.41855,33.58766],[130.41855,33.58779]],[[130.41855,33.58779],[130.41856,33.58785],[130.4186,33.58865],[130.4186,33.58874],[130.41863,33.58912]]]},"properties":{"days":[1,4],"to":"博多車站","mode":"bus","ref":"5","name":"シーサイドももち線;金武線　那の津口⇒博多駅","operator":"西日本鉄道","headway_min":null}},{"type":"Feature","geometry":{"type":"MultiLineString","coordinates":[[[130.41442,33.59422],[130.41536,33.59351],[130.416,33.59303],[130.41627,33.59283],[130.41647,33.59268],[130.41699,33.59229],[130.41737,33.592],[130.41742,33.59197]],[[130.41742,33.59197],[130.41799,33.59155],[130.4185,33.59117]],[[130.4185,33.59117],[130.41875,33.59098],[130.4188,33.5909]],[[130.41889,33.59078],[130.41887,33.59025]],[[130.41887,33.59025],[130.41884,33.58983],[130.41884,33.58972],[130.41883,33.58961]],[[130.41883,33.58961],[130.41881,33.58946],[130.41879,33.58916],[130.41877,33.58874],[130.41876,33.58864],[130.41873,33.58784],[130.41873,33.5878]],[[130.41873,33.5878],[130.4187,33.58766],[130.41869,33.58762],[130.41868,33.58756],[130.41864,33.58745]],[[130.41864,33.58745],[130.41856,33.58741],[130.41843,33.58732],[130.41831,33.58725],[130.41762,33.58684],[130.41726,33.58662],[130.4171,33.58653],[130.41646,33.58616],[130.41637,33.5861],[130.41619,33.586],[130.4157,33.58571],[130.41554,33.58562]],[[130.41554,33.58562],[130.41536,33.58551],[130.41448,33.585],[130.41441,33.58496],[130.41354,33.58445],[130.41341,33.58437],[130.41279,33.58402],[130.41268,33.58395]],[[130.41268,33.58395],[130.41254,33.58388],[130.41239,33.58381],[130.41205,33.58372]],[[130.41205,33.58372],[130.41184,33.58366],[130.41127,33.58348],[130.41078,33.58334],[130.41071,33.58332],[130.4101,33.58313]],[[130.4101,33.58313],[130.40932,33.58289]],[[130.40932,33.58289],[130.40914,33.58283],[130.40895,33.58277],[130.40872,33.5827],[130.40844,33.58262]],[[130.40844,33.58262],[130.40833,33.58258]],[[130.40833,33.58258],[130.40802,33.58249]],[[130.40802,33.58249],[130.40789,33.58244]],[[130.40789,33.58244],[130.40755,33.58239]],[[130.40755,33.58239],[130.40746,33.58237],[130.40737,33.58237],[130.40716,33.58237]],[[130.40716,33.58237],[130.40704,33.58238],[130.40686,33.58238]],[[130.40686,33.58238],[130.40669,33.58239]],[[130.40669,33.58239],[130.40656,33.5824],[130.40639,33.58241],[130.40616,33.58252]],[[130.40616,33.58252],[130.40601,33.58251]],[[130.40601,33.58251],[130.40582,33.58269],[130.4058,33.58271],[130.40548,33.58307]],[[130.40548,33.58307],[130.40523,33.58335],[130.40467,33.58398],[130.40462,33.58404],[130.40406,33.58467],[130.404,33.58474],[130.40392,33.58482],[130.40317,33.58567],[130.40287,33.586],[130.40257,33.58632],[130.40249,33.58642],[130.40247,33.58643]],[[130.40247,33.58643],[130.40244,33.58648],[130.40236,33.58656]],[[130.40236,33.58656],[130.40234,33.58659],[130.40203,33.58693],[130.40162,33.58738]],[[130.40162,33.58738],[130.40146,33.58756],[130.40127,33.58777],[130.40124,33.5878],[130.40116,33.5879]],[[130.40116,33.5879],[130.40105,33.58803],[130.40084,33.58826],[130.40026,33.5889],[130.40018,33.589],[130.4001,33.58909],[130.40009,33.5891],[130.39966,33.58954],[130.39959,33.58964],[130.39947,33.5898],[130.39939,33.58992],[130.39926,33.59023],[130.39924,33.59028],[130.3992,33.59038]],[[130.3992,33.59038],[130.39908,33.59068],[130.39907,33.5907],[130.39891,33.59112],[130.39891,33.59113],[130.39882,33.59135]]]},"properties":{"days":[1,4],"to":"博多車站","mode":"bus","ref":"BRT","name":"都心循環BRT　外回り","operator":"西日本鉄道","headway_min":null}},{"type":"Feature","geometry":{"type":"MultiLineString","coordinates":[[[130.68905,32.78622],[130.68926,32.78661],[130.68935,32.78684],[130.6894,32.78698],[130.68943,32.78712],[130.68948,32.78766],[130.68953,32.78831],[130.68954,32.78841],[130.68955,32.78852],[130.68958,32.78882],[130.68961,32.789],[130.68968,32.78918],[130.68989,32.78972],[130.68996,32.78987]],[[130.68996,32.78987],[130.68988,32.78992],[130.68984,32.78994],[130.6898,32.78996],[130.68963,32.79007],[130.68952,32.7901],[130.68942,32.7901],[130.68932,32.79013],[130.68926,32.79019],[130.68927,32.79028],[130.68955,32.79069]],[[130.68955,32.79069],[130.68958,32.79074],[130.68964,32.79077],[130.68971,32.79077],[130.68982,32.79073],[130.68987,32.79071],[130.68991,32.79065],[130.68989,32.79058],[130.68983,32.79049],[130.68972,32.79037]],[[130.68972,32.79037],[130.68967,32.79029],[130.68964,32.79022],[130.68964,32.79016],[130.68969,32.79011],[130.68975,32.79008]],[[130.68975,32.79008],[130.68987,32.79001],[130.6899,32.78999],[130.68995,32.78997],[130.69001,32.78995]],[[130.69001,32.78995],[130.69007,32.79004],[130.69013,32.79012],[130.69023,32.79027],[130.69056,32.79057],[130.69094,32.79087],[130.691,32.79091],[130.69113,32.79101],[130.69201,32.7917],[130.69205,32.79174],[130.69259,32.79218],[130.693,32.79248],[130.69313,32.79258],[130.69326,32.79262],[130.69343,32.79263]],[[130.69343,32.79263],[130.69377,32.79262]],[[130.69377,32.79262],[130.69403,32.79269]],[[130.69403,32.79269],[130.69427,32.79277],[130.69488,32.79296],[130.695,32.793],[130.6953,32.7931],[130.69566,32.79324],[130.69579,32.79336],[130.69581,32.79338],[130.69603,32.7939],[130.69653,32.795],[130.69658,32.7951],[130.69671,32.79537],[130.69699,32.79594],[130.6971,32.79604],[130.69719,32.79605],[130.69727,32.79605],[130.69823,32.79577],[130.69829,32.79576],[130.69836,32.79574],[130.6985,32.79569],[130.69972,32.79529],[130.70008,32.79519],[130.70052,32.79506],[130.70109,32.79489],[130.7013,32.79483],[130.70135,32.79482],[130.70143,32.7948],[130.70152,32.7948],[130.70157,32.79481],[130.70168,32.79482],[130.70177,32.79485],[130.70184,32.79489],[130.7019,32.79495],[130.70196,32.79505],[130.70203,32.79527],[130.70211,32.79555],[130.70217,32.79577],[130.7023,32.79652],[130.70237,32.79691],[130.70245,32.79732],[130.70251,32.79769],[130.70258,32.79802],[130.70262,32.79823],[130.70265,32.79835],[130.70266,32.79839],[130.70271,32.79867]],[[130.70271,32.79867],[130.70275,32.79871],[130.70277,32.79873],[130.70279,32.79877]],[[130.70279,32.79877],[130.70281,32.79873],[130.70283,32.7987],[130.70285,32.79865]],[[130.70285,32.79865],[130.70284,32.7986],[130.70283,32.79856],[130.70282,32.79854],[130.70277,32.79837],[130.70273,32.79821],[130.70269,32.79801],[130.70263,32.79769],[130.70256,32.79731],[130.70249,32.79689],[130.70242,32.79651],[130.7023,32.7959],[130.70227,32.79573],[130.70222,32.79553],[130.70215,32.79533],[130.70214,32.79525],[130.70207,32.79503],[130.702,32.79489],[130.70196,32.79482],[130.70187,32.79476],[130.70179,32.79471],[130.70169,32.79468],[130.70157,32.79467],[130.70124,32.79473],[130.70105,32.79478],[130.7006,32.79492],[130.70004,32.7951],[130.69968,32.79521],[130.69905,32.79541],[130.69846,32.7956],[130.69833,32.79564],[130.69825,32.79567],[130.69735,32.79592],[130.69726,32.79593],[130.69718,32.79591],[130.69712,32.79587],[130.69704,32.79579],[130.69688,32.79545],[130.69683,32.79533],[130.6967,32.79506],[130.69665,32.79496],[130.69617,32.79386],[130.69591,32.79333],[130.69577,32.79317],[130.69574,32.79314],[130.69563,32.79304]],[[130.69563,32.79304],[130.69548,32.79298],[130.69511,32.79287],[130.69425,32.79261],[130.6939,32.79251]],[[130.6939,32.79251],[130.69379,32.7925]],[[130.69379,32.7925],[130.6934,32.79248]],[[130.6901,32.7898],[130.69003,32.78967],[130.68993,32.7895],[130.68978,32.78914],[130.68972,32.78897],[130.68968,32.78879],[130.68965,32.78851],[130.68964,32.7884],[130.68963,32.78829],[130.68958,32.78764],[130.68952,32.78709],[130.6895,32.78693],[130.68946,32.78681],[130.68936,32.78656],[130.68914,32.78616]],[[130.69017,32.78989],[130.6901,32.7898]],[[130.69336,32.79248],[130.69315,32.79243],[130.69214,32.79165],[130.6921,32.79162],[130.69122,32.79091],[130.69116,32.79086],[130.69109,32.79082],[130.69101,32.79075],[130.69066,32.79045],[130.69043,32.79024],[130.69026,32.79003],[130.69017,32.78989]],[[130.70279,32.79877],[130.70284,32.79909],[130.7029,32.79949]],[[130.7029,32.79949],[130.70289,32.79962],[130.7029,32.79967],[130.70291,32.79976],[130.70292,32.79979]],[[130.70292,32.79979],[130.70298,32.79978]],[[130.70298,32.79978],[130.70308,32.79977],[130.70312,32.79976],[130.70339,32.79972],[130.70341,32.79985],[130.70344,32.80002],[130.70348,32.80019],[130.70351,32.80036],[130.70353,32.8005],[130.70355,32.80057],[130.70329,32.80061],[130.70326,32.80061],[130.70319,32.80062]],[[130.70319,32.80062],[130.70317,32.80061],[130.70315,32.80059],[130.70312,32.80059]],[[130.70312,32.80059],[130.70309,32.80059],[130.70307,32.80059]],[[130.70307,32.80059],[130.70304,32.80061],[130.70301,32.80063],[130.703,32.80066],[130.703,32.80069],[130.70302,32.80072]],[[130.70302,32.80072],[130.70292,32.80087],[130.7029,32.8009],[130.70279,32.80108],[130.70273,32.80116],[130.70269,32.80128]],[[130.70269,32.80128],[130.70278,32.80121],[130.70288,32.80106],[130.70294,32.80095],[130.70298,32.80089],[130.70299,32.80086],[130.70306,32.80075]],[[130.70306,32.80075],[130.70309,32.80076],[130.70313,32.80076],[130.70316,32.80075],[130.70319,32.80073],[130.70321,32.80071],[130.70321,32.80068]],[[130.70321,32.80068],[130.70327,32.80067],[130.70331,32.80066],[130.70335,32.80066],[130.70347,32.80064],[130.70359,32.80062],[130.70359,32.80058],[130.70357,32.80049],[130.70354,32.80035],[130.70351,32.80018],[130.70348,32.80002]],[[130.70348,32.80002],[130.70345,32.79984]],[[130.70345,32.79984],[130.70342,32.79968]],[[130.70342,32.79968],[130.70311,32.79971]],[[130.70311,32.79971],[130.70307,32.79972],[130.70297,32.79973]],[[130.70297,32.79973],[130.70296,32.79966],[130.70295,32.79961],[130.7029,32.79949]],[[130.70461,32.80155],[130.70393,32.80166],[130.70379,32.80167],[130.70365,32.80167],[130.70352,32.80166],[130.70337,32.80163],[130.70312,32.8015],[130.70269,32.80128]],[[130.70557,32.80142],[130.70474,32.80153],[130.70461,32.80155]],[[130.70577,32.80138],[130.70567,32.8014],[130.70564,32.8014],[130.70557,32.80142]],[[130.70836,32.80413],[130.70832,32.80413],[130.70828,32.80411],[130.70822,32.80408],[130.70787,32.80372],[130.70706,32.80287],[130.70674,32.80247],[130.70577,32.80138]],[[130.7083,32.80434],[130.70834,32.80421],[130.70835,32.80417],[130.70836,32.80413]],[[130.70557,32.80142],[130.70588,32.80175],[130.70659,32.80253],[130.70693,32.80293],[130.70705,32.80308],[130.70715,32.80318],[130.70726,32.80329],[130.70752,32.80354],[130.70809,32.80417],[130.7082,32.80429],[130.70825,32.80432],[130.7083,32.80434]],[[130.70825,32.80442],[130.7083,32.80434]],[[130.70825,32.80442],[130.70813,32.80466]],[[130.70812,32.80617],[130.70813,32.80614],[130.70813,32.80611],[130.70814,32.80583],[130.70814,32.80562],[130.70814,32.80517],[130.70813,32.80475],[130.70813,32.80466]],[[130.70941,32.80599],[130.70938,32.80602],[130.70922,32.80614],[130.70918,32.80616],[130.70914,32.80617],[130.70866,32.80619],[130.70854,32.8062],[130.70846,32.8062],[130.70819,32.80618],[130.70812,32.80617]],[[130.70941,32.80599],[130.70958,32.80584]],[[130.70958,32.80584],[130.70965,32.80581]],[[130.7083,32.80434],[130.70847,32.80452],[130.70902,32.80508],[130.70959,32.80575],[130.70965,32.80581]],[[130.70784,32.80661],[130.70797,32.80641],[130.70805,32.80629],[130.7081,32.80622],[130.70812,32.80617]],[[130.70784,32.80661],[130.70779,32.80667],[130.70771,32.80673],[130.70756,32.80678],[130.70691,32.80699],[130.70682,32.80702],[130.70674,32.80704],[130.70665,32.80706],[130.70634,32.80712],[130.70624,32.80714],[130.70615,32.80718],[130.70606,32.80724],[130.706,32.8073],[130.70597,32.80735],[130.70595,32.80741],[130.70588,32.8077],[130.70585,32.80775],[130.70581,32.80782]],[[130.70517,32.80956],[130.70512,32.80933],[130.70508,32.80912],[130.70509,32.80891],[130.70512,32.80875],[130.70516,32.80862],[130.70526,32.80841],[130.70542,32.8082],[130.70569,32.80798],[130.70577,32.80789],[130.70581,32.80782]],[[130.70517,32.80956],[130.70523,32.80987]],[[130.70545,32.81163],[130.70538,32.81108],[130.70534,32.81068],[130.70532,32.81046],[130.70529,32.81014],[130.70524,32.80991]]]},"properties":{"days":[2],"to":"熊本車站","mode":"bus","ref":"A2-1","name":"","operator":"","headway_min":null}},{"type":"Feature","geometry":{"type":"MultiLineString","coordinates":[[[130.68905,32.78622],[130.68926,32.78661],[130.68935,32.78684],[130.6894,32.78698],[130.68943,32.78712],[130.68948,32.78766],[130.68953,32.78831],[130.68954,32.78841],[130.68955,32.78852],[130.68958,32.78882],[130.68961,32.789],[130.68968,32.78918],[130.68989,32.78972],[130.68996,32.78987]],[[130.68996,32.78987],[130.68988,32.78992],[130.68984,32.78994],[130.6898,32.78996],[130.68963,32.79007],[130.68952,32.7901],[130.68942,32.7901],[130.68932,32.79013],[130.68926,32.79019],[130.68927,32.79028],[130.68955,32.79069]],[[130.68955,32.79069],[130.68958,32.79074],[130.68964,32.79077],[130.68971,32.79077],[130.68982,32.79073],[130.68987,32.79071],[130.68991,32.79065],[130.68989,32.79058],[130.68983,32.79049],[130.68972,32.79037]],[[130.68972,32.79037],[130.68967,32.79029],[130.68964,32.79022],[130.68964,32.79016],[130.68969,32.79011],[130.68975,32.79008]],[[130.68975,32.79008],[130.68987,32.79001],[130.6899,32.78999],[130.68995,32.78997],[130.69001,32.78995]],[[130.69001,32.78995],[130.69007,32.79004],[130.69013,32.79012],[130.69023,32.79027],[130.69056,32.79057],[130.69094,32.79087],[130.691,32.79091],[130.69113,32.79101],[130.69201,32.7917],[130.69205,32.79174],[130.69259,32.79218],[130.693,32.79248],[130.69313,32.79258],[130.69326,32.79262],[130.69343,32.79263]],[[130.69343,32.79263],[130.69377,32.79262]],[[130.69377,32.79262],[130.69403,32.79269]],[[130.69403,32.79269],[130.69427,32.79277],[130.69488,32.79296],[130.695,32.793],[130.6953,32.7931],[130.69566,32.79324],[130.69579,32.79336],[130.69581,32.79338],[130.69603,32.7939],[130.69653,32.795],[130.69658,32.7951],[130.69671,32.79537],[130.69699,32.79594],[130.6971,32.79604],[130.69719,32.79605],[130.69727,32.79605],[130.69823,32.79577],[130.69829,32.79576],[130.69836,32.79574],[130.6985,32.79569],[130.69972,32.79529],[130.70008,32.79519],[130.70052,32.79506],[130.70109,32.79489],[130.7013,32.79483],[130.70135,32.79482],[130.70143,32.7948],[130.70152,32.7948],[130.70157,32.79481],[130.70168,32.79482],[130.70177,32.79485],[130.70184,32.79489],[130.7019,32.79495],[130.70196,32.79505],[130.70203,32.79527],[130.70211,32.79555],[130.70217,32.79577],[130.7023,32.79652],[130.70237,32.79691],[130.70245,32.79732],[130.70251,32.79769],[130.70258,32.79802],[130.70262,32.79823],[130.70265,32.79835],[130.70266,32.79839],[130.70271,32.79867]],[[130.70271,32.79867],[130.70275,32.79871],[130.70277,32.79873],[130.70279,32.79877]],[[130.70279,32.79877],[130.70281,32.79873],[130.70283,32.7987],[130.70285,32.79865]],[[130.70285,32.79865],[130.70284,32.7986],[130.70283,32.79856],[130.70282,32.79854],[130.70277,32.79837],[130.70273,32.79821],[130.70269,32.79801],[130.70263,32.79769],[130.70256,32.79731],[130.70249,32.79689],[130.70242,32.79651],[130.7023,32.7959],[130.70227,32.79573],[130.70222,32.79553],[130.70215,32.79533],[130.70214,32.79525],[130.70207,32.79503],[130.702,32.79489],[130.70196,32.79482],[130.70187,32.79476],[130.70179,32.79471],[130.70169,32.79468],[130.70157,32.79467],[130.70124,32.79473],[130.70105,32.79478],[130.7006,32.79492],[130.70004,32.7951],[130.69968,32.79521],[130.69905,32.79541],[130.69846,32.7956],[130.69833,32.79564],[130.69825,32.79567],[130.69735,32.79592],[130.69726,32.79593],[130.69718,32.79591],[130.69712,32.79587],[130.69704,32.79579],[130.69688,32.79545],[130.69683,32.79533],[130.6967,32.79506],[130.69665,32.79496],[130.69617,32.79386],[130.69591,32.79333],[130.69577,32.79317],[130.69574,32.79314],[130.69563,32.79304]],[[130.69563,32.79304],[130.69548,32.79298],[130.69511,32.79287],[130.69425,32.79261],[130.6939,32.79251]],[[130.6939,32.79251],[130.69379,32.7925]],[[130.69379,32.7925],[130.6934,32.79248]],[[130.6901,32.7898],[130.69003,32.78967],[130.68993,32.7895],[130.68978,32.78914],[130.68972,32.78897],[130.68968,32.78879],[130.68965,32.78851],[130.68964,32.7884],[130.68963,32.78829],[130.68958,32.78764],[130.68952,32.78709],[130.6895,32.78693],[130.68946,32.78681],[130.68936,32.78656],[130.68914,32.78616]],[[130.69017,32.78989],[130.6901,32.7898]],[[130.69336,32.79248],[130.69315,32.79243],[130.69214,32.79165],[130.6921,32.79162],[130.69122,32.79091],[130.69116,32.79086],[130.69109,32.79082],[130.69101,32.79075],[130.69066,32.79045],[130.69043,32.79024],[130.69026,32.79003],[130.69017,32.78989]],[[130.70279,32.79877],[130.70284,32.79909],[130.7029,32.79949]],[[130.7029,32.79949],[130.70289,32.79962],[130.7029,32.79967],[130.70291,32.79976],[130.70292,32.79979]],[[130.70292,32.79979],[130.70298,32.79978]],[[130.70298,32.79978],[130.70308,32.79977],[130.70312,32.79976],[130.70339,32.79972],[130.70341,32.79985],[130.70344,32.80002],[130.70348,32.80019],[130.70351,32.80036],[130.70353,32.8005],[130.70355,32.80057],[130.70329,32.80061],[130.70326,32.80061],[130.70319,32.80062]],[[130.70319,32.80062],[130.70317,32.80061],[130.70315,32.80059],[130.70312,32.80059]],[[130.70312,32.80059],[130.70309,32.80059],[130.70307,32.80059]],[[130.70307,32.80059],[130.70304,32.80061],[130.70301,32.80063],[130.703,32.80066],[130.703,32.80069],[130.70302,32.80072]],[[130.70302,32.80072],[130.70292,32.80087],[130.7029,32.8009],[130.70279,32.80108],[130.70273,32.80116],[130.70269,32.80128]],[[130.70269,32.80128],[130.70278,32.80121],[130.70288,32.80106],[130.70294,32.80095],[130.70298,32.80089],[130.70299,32.80086],[130.70306,32.80075]],[[130.70306,32.80075],[130.70309,32.80076],[130.70313,32.80076],[130.70316,32.80075],[130.70319,32.80073],[130.70321,32.80071],[130.70321,32.80068]],[[130.70321,32.80068],[130.70327,32.80067],[130.70331,32.80066],[130.70335,32.80066],[130.70347,32.80064],[130.70359,32.80062],[130.70359,32.80058],[130.70357,32.80049],[130.70354,32.80035],[130.70351,32.80018],[130.70348,32.80002]],[[130.70348,32.80002],[130.70345,32.79984]],[[130.70345,32.79984],[130.70342,32.79968]],[[130.70342,32.79968],[130.70311,32.79971]],[[130.70311,32.79971],[130.70307,32.79972],[130.70297,32.79973]],[[130.70297,32.79973],[130.70296,32.79966],[130.70295,32.79961],[130.7029,32.79949]],[[130.70461,32.80155],[130.70393,32.80166],[130.70379,32.80167],[130.70365,32.80167],[130.70352,32.80166],[130.70337,32.80163],[130.70312,32.8015],[130.70269,32.80128]],[[130.70557,32.80142],[130.70474,32.80153],[130.70461,32.80155]],[[130.70577,32.80138],[130.70567,32.8014],[130.70564,32.8014],[130.70557,32.80142]],[[130.70836,32.80413],[130.70832,32.80413],[130.70828,32.80411],[130.70822,32.80408],[130.70787,32.80372],[130.70706,32.80287],[130.70674,32.80247],[130.70577,32.80138]],[[130.7083,32.80434],[130.70834,32.80421],[130.70835,32.80417],[130.70836,32.80413]],[[130.70557,32.80142],[130.70588,32.80175],[130.70659,32.80253],[130.70693,32.80293],[130.70705,32.80308],[130.70715,32.80318],[130.70726,32.80329],[130.70752,32.80354],[130.70809,32.80417],[130.7082,32.80429],[130.70825,32.80432],[130.7083,32.80434]],[[130.70825,32.80442],[130.7083,32.80434]],[[130.70825,32.80442],[130.70813,32.80466]],[[130.70812,32.80617],[130.70813,32.80614],[130.70813,32.80611],[130.70814,32.80583],[130.70814,32.80562],[130.70814,32.80517],[130.70813,32.80475],[130.70813,32.80466]],[[130.70941,32.80599],[130.70938,32.80602],[130.70922,32.80614],[130.70918,32.80616],[130.70914,32.80617],[130.70866,32.80619],[130.70854,32.8062],[130.70846,32.8062],[130.70819,32.80618],[130.70812,32.80617]],[[130.70941,32.80599],[130.70958,32.80584]],[[130.70958,32.80584],[130.70965,32.80581]],[[130.7083,32.80434],[130.70847,32.80452],[130.70902,32.80508],[130.70959,32.80575],[130.70965,32.80581]],[[130.70784,32.80661],[130.70797,32.80641],[130.70805,32.80629],[130.7081,32.80622],[130.70812,32.80617]],[[130.70784,32.80661],[130.70779,32.80667],[130.70771,32.80673],[130.70756,32.80678],[130.70691,32.80699],[130.70682,32.80702],[130.70674,32.80704],[130.70665,32.80706],[130.70634,32.80712],[130.70624,32.80714],[130.70615,32.80718],[130.70606,32.80724],[130.706,32.8073],[130.70597,32.80735],[130.70595,32.80741],[130.70588,32.8077],[130.70585,32.80775],[130.70581,32.80782]],[[130.70517,32.80956],[130.70512,32.80933],[130.70508,32.80912],[130.70509,32.80891],[130.70512,32.80875],[130.70516,32.80862],[130.70526,32.80841],[130.70542,32.8082],[130.70569,32.80798],[130.70577,32.80789],[130.70581,32.80782]],[[130.70517,32.80956],[130.70523,32.80987]],[[130.70545,32.81163],[130.70538,32.81108],[130.70534,32.81068],[130.70532,32.81046],[130.70529,32.81014],[130.70524,32.80991]]]},"properties":{"days":[2],"to":"熊本車站","mode":"bus","ref":"A4-1","name":"","operator":"","headway_min":null}},{"type":"Feature","geometry":{"type":"MultiLineString","coordinates":[[[130.68905,32.78622],[130.68926,32.78661],[130.68935,32.78684],[130.6894,32.78698],[130.68943,32.78712],[130.68948,32.78766],[130.68953,32.78831],[130.68954,32.78841],[130.68955,32.78852],[130.68958,32.78882],[130.68961,32.789],[130.68968,32.78918],[130.68989,32.78972],[130.68996,32.78987]],[[130.68996,32.78987],[130.68988,32.78992],[130.68984,32.78994],[130.6898,32.78996],[130.68963,32.79007],[130.68952,32.7901],[130.68942,32.7901],[130.68932,32.79013],[130.68926,32.79019],[130.68927,32.79028],[130.68955,32.79069]],[[130.68955,32.79069],[130.68958,32.79074],[130.68964,32.79077],[130.68971,32.79077],[130.68982,32.79073],[130.68987,32.79071],[130.68991,32.79065],[130.68989,32.79058],[130.68983,32.79049],[130.68972,32.79037]],[[130.68972,32.79037],[130.68967,32.79029],[130.68964,32.79022],[130.68964,32.79016],[130.68969,32.79011],[130.68975,32.79008]],[[130.68975,32.79008],[130.68987,32.79001],[130.6899,32.78999],[130.68995,32.78997],[130.69001,32.78995]],[[130.69001,32.78995],[130.69007,32.79004],[130.69013,32.79012],[130.69023,32.79027],[130.69056,32.79057],[130.69094,32.79087],[130.691,32.79091],[130.69113,32.79101],[130.69201,32.7917],[130.69205,32.79174],[130.69259,32.79218],[130.693,32.79248],[130.69313,32.79258],[130.69326,32.79262],[130.69343,32.79263]],[[130.69343,32.79263],[130.69377,32.79262]],[[130.69377,32.79262],[130.69403,32.79269]],[[130.69403,32.79269],[130.69427,32.79277],[130.69488,32.79296],[130.695,32.793],[130.6953,32.7931],[130.69566,32.79324],[130.69579,32.79336],[130.69581,32.79338],[130.69603,32.7939],[130.69653,32.795],[130.69658,32.7951],[130.69671,32.79537],[130.69699,32.79594],[130.6971,32.79604],[130.69719,32.79605],[130.69727,32.79605],[130.69823,32.79577],[130.69829,32.79576],[130.69836,32.79574],[130.6985,32.79569],[130.69972,32.79529],[130.70008,32.79519],[130.70052,32.79506],[130.70109,32.79489],[130.7013,32.79483],[130.70135,32.79482],[130.70143,32.7948],[130.70152,32.7948],[130.70157,32.79481],[130.70168,32.79482],[130.70177,32.79485],[130.70184,32.79489],[130.7019,32.79495],[130.70196,32.79505],[130.70203,32.79527],[130.70211,32.79555],[130.70217,32.79577],[130.7023,32.79652],[130.70237,32.79691],[130.70245,32.79732],[130.70251,32.79769],[130.70258,32.79802],[130.70262,32.79823],[130.70265,32.79835],[130.70266,32.79839],[130.70271,32.79867]],[[130.70271,32.79867],[130.70275,32.79871],[130.70277,32.79873],[130.70279,32.79877]],[[130.70279,32.79877],[130.70281,32.79873],[130.70283,32.7987],[130.70285,32.79865]],[[130.70285,32.79865],[130.70284,32.7986],[130.70283,32.79856],[130.70282,32.79854],[130.70277,32.79837],[130.70273,32.79821],[130.70269,32.79801],[130.70263,32.79769],[130.70256,32.79731],[130.70249,32.79689],[130.70242,32.79651],[130.7023,32.7959],[130.70227,32.79573],[130.70222,32.79553],[130.70215,32.79533],[130.70214,32.79525],[130.70207,32.79503],[130.702,32.79489],[130.70196,32.79482],[130.70187,32.79476],[130.70179,32.79471],[130.70169,32.79468],[130.70157,32.79467],[130.70124,32.79473],[130.70105,32.79478],[130.7006,32.79492],[130.70004,32.7951],[130.69968,32.79521],[130.69905,32.79541],[130.69846,32.7956],[130.69833,32.79564],[130.69825,32.79567],[130.69735,32.79592],[130.69726,32.79593],[130.69718,32.79591],[130.69712,32.79587],[130.69704,32.79579],[130.69688,32.79545],[130.69683,32.79533],[130.6967,32.79506],[130.69665,32.79496],[130.69617,32.79386],[130.69591,32.79333],[130.69577,32.79317],[130.69574,32.79314],[130.69563,32.79304]],[[130.69563,32.79304],[130.69548,32.79298],[130.69511,32.79287],[130.69425,32.79261],[130.6939,32.79251]],[[130.6939,32.79251],[130.69379,32.7925]],[[130.69379,32.7925],[130.6934,32.79248]],[[130.6901,32.7898],[130.69003,32.78967],[130.68993,32.7895],[130.68978,32.78914],[130.68972,32.78897],[130.68968,32.78879],[130.68965,32.78851],[130.68964,32.7884],[130.68963,32.78829],[130.68958,32.78764],[130.68952,32.78709],[130.6895,32.78693],[130.68946,32.78681],[130.68936,32.78656],[130.68914,32.78616]],[[130.69017,32.78989],[130.6901,32.7898]],[[130.69336,32.79248],[130.69315,32.79243],[130.69214,32.79165],[130.6921,32.79162],[130.69122,32.79091],[130.69116,32.79086],[130.69109,32.79082],[130.69101,32.79075],[130.69066,32.79045],[130.69043,32.79024],[130.69026,32.79003],[130.69017,32.78989]],[[130.70279,32.79877],[130.70284,32.79909],[130.7029,32.79949]],[[130.7029,32.79949],[130.70289,32.79962],[130.7029,32.79967],[130.70291,32.79976],[130.70292,32.79979]],[[130.70292,32.79979],[130.70298,32.79978]],[[130.70298,32.79978],[130.70308,32.79977],[130.70312,32.79976],[130.70339,32.79972],[130.70341,32.79985],[130.70344,32.80002],[130.70348,32.80019],[130.70351,32.80036],[130.70353,32.8005],[130.70355,32.80057],[130.70329,32.80061],[130.70326,32.80061],[130.70319,32.80062]],[[130.70319,32.80062],[130.70317,32.80061],[130.70315,32.80059],[130.70312,32.80059]],[[130.70312,32.80059],[130.70309,32.80059],[130.70307,32.80059]],[[130.70307,32.80059],[130.70304,32.80061],[130.70301,32.80063],[130.703,32.80066],[130.703,32.80069],[130.70302,32.80072]],[[130.70302,32.80072],[130.70292,32.80087],[130.7029,32.8009],[130.70279,32.80108],[130.70273,32.80116],[130.70269,32.80128]],[[130.70269,32.80128],[130.70278,32.80121],[130.70288,32.80106],[130.70294,32.80095],[130.70298,32.80089],[130.70299,32.80086],[130.70306,32.80075]],[[130.70306,32.80075],[130.70309,32.80076],[130.70313,32.80076],[130.70316,32.80075],[130.70319,32.80073],[130.70321,32.80071],[130.70321,32.80068]],[[130.70321,32.80068],[130.70327,32.80067],[130.70331,32.80066],[130.70335,32.80066],[130.70347,32.80064],[130.70359,32.80062],[130.70359,32.80058],[130.70357,32.80049],[130.70354,32.80035],[130.70351,32.80018],[130.70348,32.80002]],[[130.70348,32.80002],[130.70345,32.79984]],[[130.70345,32.79984],[130.70342,32.79968]],[[130.70342,32.79968],[130.70311,32.79971]],[[130.70311,32.79971],[130.70307,32.79972],[130.70297,32.79973]],[[130.70297,32.79973],[130.70296,32.79966],[130.70295,32.79961],[130.7029,32.79949]],[[130.70461,32.80155],[130.70393,32.80166],[130.70379,32.80167],[130.70365,32.80167],[130.70352,32.80166],[130.70337,32.80163],[130.70312,32.8015],[130.70269,32.80128]],[[130.70557,32.80142],[130.70474,32.80153],[130.70461,32.80155]],[[130.70577,32.80138],[130.70567,32.8014],[130.70564,32.8014],[130.70557,32.80142]],[[130.70836,32.80413],[130.70832,32.80413],[130.70828,32.80411],[130.70822,32.80408],[130.70787,32.80372],[130.70706,32.80287],[130.70674,32.80247],[130.70577,32.80138]],[[130.7083,32.80434],[130.70834,32.80421],[130.70835,32.80417],[130.70836,32.80413]],[[130.70557,32.80142],[130.70588,32.80175],[130.70659,32.80253],[130.70693,32.80293],[130.70705,32.80308],[130.70715,32.80318],[130.70726,32.80329],[130.70752,32.80354],[130.70809,32.80417],[130.7082,32.80429],[130.70825,32.80432],[130.7083,32.80434]],[[130.70825,32.80442],[130.7083,32.80434]],[[130.70825,32.80442],[130.70813,32.80466]],[[130.70812,32.80617],[130.70813,32.80614],[130.70813,32.80611],[130.70814,32.80583],[130.70814,32.80562],[130.70814,32.80517],[130.70813,32.80475],[130.70813,32.80466]],[[130.70941,32.80599],[130.70938,32.80602],[130.70922,32.80614],[130.70918,32.80616],[130.70914,32.80617],[130.70866,32.80619],[130.70854,32.8062],[130.70846,32.8062],[130.70819,32.80618],[130.70812,32.80617]],[[130.70941,32.80599],[130.70958,32.80584]],[[130.70958,32.80584],[130.70965,32.80581]],[[130.7083,32.80434],[130.70847,32.80452],[130.70902,32.80508],[130.70959,32.80575],[130.70965,32.80581]],[[130.70784,32.80661],[130.70797,32.80641],[130.70805,32.80629],[130.7081,32.80622],[130.70812,32.80617]],[[130.70784,32.80661],[130.70779,32.80667],[130.70771,32.80673],[130.70756,32.80678],[130.70691,32.80699],[130.70682,32.80702],[130.70674,32.80704],[130.70665,32.80706],[130.70634,32.80712],[130.70624,32.80714],[130.70615,32.80718],[130.70606,32.80724],[130.706,32.8073],[130.70597,32.80735],[130.70595,32.80741],[130.70588,32.8077],[130.70585,32.80775],[130.70581,32.80782]],[[130.70517,32.80956],[130.70512,32.80933],[130.70508,32.80912],[130.70509,32.80891],[130.70512,32.80875],[130.70516,32.80862],[130.70526,32.80841],[130.70542,32.8082],[130.70569,32.80798],[130.70577,32.80789],[130.70581,32.80782]],[[130.70517,32.80956],[130.70523,32.80987]],[[130.70545,32.81163],[130.70538,32.81108],[130.70534,32.81068],[130.70532,32.81046],[130.70529,32.81014],[130.70524,32.80991]]]},"properties":{"days":[2],"to":"熊本車站","mode":"bus","ref":"A4-2","name":"","operator":"","headway_min":null}}]}