{"type":"FeatureCollection","features":[{"type":"Feature","geometry":{"type":"Point","coordinates":[130.72,32.8]},"properties":{"id":"wagashi","name":"和果子手作體驗","days":[2],"radius_m":6000,"note":"地點未公布，推測在熊本市區周邊"}},{"type":"Feature","geometry":{"type":"Point","coordinates":[130.47,33.57]},"properties":{"id":"dutyfree","name":"免稅店","days":[4],"radius_m":6000,"note":"地點未公布，推測在太宰府往 LaLaport 途中"}},{"type":"Feature","geometry":{"type":"Point","coordinates":[130.41,33.58]},"properties":{"id":"yakiniku","name":"和牛燒肉吃到飽","days":[4],"radius_m":3000,"note":"地點未公布，推測在福岡市區"}}]}